
# Worst residual: 2.03 km
# MJD 59439.000000 (2021 Aug 13  0:00)
1969-046F = NORAD 03956 = Vela booster
1 03956U 69046F   21225.49918769  .00000000  00000-0  00000-0 0 10883
2 03956 018.2551 340.4247 8094845 280.9430 184.9139 00.46196040    00

# Worst residual: 8.95 km
# MJD 59440.000000 (2021 Aug 14  0:00)
1969-046F = NORAD 03956 = Vela booster
1 03956U 69046F   21226.49918769  .00000000  00000-0  00000-0 0 10884
2 03956 018.2540 340.4360 8094260 280.9586 351.1730 00.46198509    04

# Worst residual: 1.42 km
# MJD 59441.000000 (2021 Aug 15  0:00)
1969-046F = NORAD 03956 = Vela booster
1 03956U 69046F   21227.49918769  .00000000  00000-0  00000-0 0 10885
2 03956 018.2501 340.4456 8094916 280.9768 157.4231 00.46194322    09

# Worst residual: 12.55 km
# MJD 59442.000000 (2021 Aug 16  0:00)
1969-046F = NORAD 03956 = Vela booster
1 03956U 69046F   21228.49918769  .00000000  00000-0  00000-0 0 10886
2 03956 018.2492 340.4562 8094269 280.9824 323.6988 00.46179566    09

# Worst residual: 5.49 km
# MJD 59443.000000 (2021 Aug 17  0:00)
1969-046F = NORAD 03956 = Vela booster
1 03956U 69046F   21229.49918769  .00000000  00000-0  00000-0 0 10887
2 03956 018.2454 340.4538 8093846 281.0170 129.9473 00.46189023    01

# Worst residual: 8.15 km
# MJD 59444.000000 (2021 Aug 18  0:00)
1969-046F = NORAD 03956 = Vela booster
1 03956U 69046F   21230.49918769  .00000000  00000-0  00000-0 0 10889
2 03956 018.2436 340.4509 8094325 281.0346 296.2272 00.46188349    02

# Worst residual: 12.58 km
# MJD 59445.000000 (2021 Aug 19  0:00)
1969-046F = NORAD 03956 = Vela booster
1 03956U 69046F   21231.49918769  .00000000  00000-0  00000-0 0 10880
2 03956 018.2430 340.4378 8093791 281.0878 102.4601 00.46179623    05

# Worst residual: 6.12 km
# MJD 59446.000000 (2021 Aug 20  0:00)
1969-046F = NORAD 03956 = Vela booster
1 03956U 69046F   21232.49918769  .00000000  00000-0  00000-0 0 10881
2 03956 018.2403 340.4378 8096160 281.1059 268.7248 00.46199450    03

# Worst residual: 6.25 km
# MJD 59447.000000 (2021 Aug 21  0:00)
1969-046F = NORAD 03956 = Vela booster
1 03956U 69046F   21233.49918769  .00000000  00000-0  00000-0 0 10882
2 03956 018.2400 340.4226 8095328 281.1516 074.9731 00.46188752    02

# Worst residual: 6.20 km
# MJD 59448.000000 (2021 Aug 22  0:00)
1969-046F = NORAD 03956 = Vela booster
1 03956U 69046F   21234.49918769  .00000000  00000-0  00000-0 0 10883
2 03956 018.2361 340.4457 8096093 281.1498 241.2441 00.46198686    07

# Worst residual: 8.34 km
# MJD 59449.000000 (2021 Aug 23  0:00)
1969-046F = NORAD 03956 = Vela booster
1 03956U 69046F   21235.49918769  .00000000  00000-0  00000-0 0 10884
2 03956 018.2346 340.4503 8093971 281.1665 047.4906 00.46206421    09

# Worst residual: 3.32 km
# MJD 59450.000000 (2021 Aug 24  0:00)
1969-046F = NORAD 03956 = Vela booster
1 03956U 69046F   21236.49918769  .00000000  00000-0  00000-0 0 10885
2 03956 018.2298 340.4714 8094820 281.1655 213.7822 00.46203483    02

# Worst residual: 6.24 km
# MJD 59451.000000 (2021 Aug 25  0:00)
1969-046F = NORAD 03956 = Vela booster
1 03956U 69046F   21237.49918769  .00000000  00000-0  00000-0 0 10886
2 03956 018.2276 340.4867 8091812 281.1642 020.0448 00.46209502    02

# Worst residual: 3.14 km
# MJD 59452.000000 (2021 Aug 26  0:00)
1969-046F = NORAD 03956 = Vela booster
1 03956U 69046F   21238.49918769  .00000000  00000-0  00000-0 0 10887
2 03956 018.2223 340.4879 8095047 281.1730 186.3260 00.46207209    09

# Worst residual: 8.29 km
# MJD 59453.000000 (2021 Aug 27  0:00)
1969-046F = NORAD 03956 = Vela booster
1 03956U 69046F   21239.49918769  .00000000  00000-0  00000-0 0 10888
2 03956 018.2216 340.4960 8093790 281.1750 352.6486 00.46195551    01

# Worst residual: 5.65 km
# MJD 59454.000000 (2021 Aug 28  0:00)
1969-046F = NORAD 03956 = Vela booster
1 03956U 69046F   21240.49918769  .00000000  00000-0  00000-0 0 10880
2 03956 018.2167 340.4966 8096837 281.1901 158.8736 00.46193459    04

# Worst residual: 11.04 km
# MJD 59455.000000 (2021 Aug 29  0:00)
1969-046F = NORAD 03956 = Vela booster
1 03956U 69046F   21241.49918769  .00000000  00000-0  00000-0 0 10881
2 03956 018.2159 340.5002 8099520 281.2040 325.1967 00.46188202    09

# Worst residual: 4.21 km
# MJD 59456.000000 (2021 Aug 30  0:00)
1969-046F = NORAD 03956 = Vela booster
1 03956U 69046F   21242.49918769  .00000000  00000-0  00000-0 0 10882
2 03956 018.2133 340.5144 8099679 281.2294 131.4127 00.46179692    03

# Worst residual: 8.09 km
# MJD 59457.000000 (2021 Aug 31  0:00)
1969-046F = NORAD 03956 = Vela booster
1 03956U 69046F   21243.49918769  .00000000  00000-0  00000-0 0 10883
2 03956 018.2062 340.5768 8102367 281.2026 297.6081 00.46186990    01

# Worst residual: 10.32 km
# MJD 59458.000000 (2021 Sep  1  0:00)
1969-046F = NORAD 03956 = Vela booster
1 03956U 69046F   21244.49918769  .00000000  00000-0  00000-0 0 10884
2 03956 018.2055 340.5755 8101489 281.2556 103.8548 00.46185253    08

# Worst residual: 5.07 km
# MJD 59459.000000 (2021 Sep  2  0:00)
1969-046F = NORAD 03956 = Vela booster
1 03956U 69046F   21245.49918769  .00000000  00000-0  00000-0 0 10885
2 03956 018.1961 340.6852 8099280 281.1779 270.0496 00.46182629    06

# Worst residual: 9.72 km
# MJD 59460.000000 (2021 Sep  3  0:00)
1969-046F = NORAD 03956 = Vela booster
1 03956U 69046F   21246.49918769  .00000000  00000-0  00000-0 0 10886
2 03956 018.1913 340.6899 8098773 281.2113 076.2781 00.46189916    02

# Worst residual: 5.69 km
# MJD 59461.000000 (2021 Sep  4  0:00)
1969-046F = NORAD 03956 = Vela booster
1 03956U 69046F   21247.49918769  .00000000  00000-0  00000-0 0 10887
2 03956 018.1856 340.7417 8097245 281.1721 242.6218 00.46197563    03

# Worst residual: 8.16 km
# MJD 59462.000000 (2021 Sep  5  0:00)
1969-046F = NORAD 03956 = Vela booster
1 03956U 69046F   21248.49918769  .00000000  00000-0  00000-0 0 10888
2 03956 018.1795 340.7662 8094636 281.1617 048.8542 00.46193983    00

# Worst residual: 1.83 km
# MJD 59463.000000 (2021 Sep  6  0:00)
1969-046F = NORAD 03956 = Vela booster
1 03956U 69046F   21249.49918769  .00000000  00000-0  00000-0 0 10889
2 03956 018.1752 340.7549 8097587 281.1794 215.1802 00.46209795    08

# Worst residual: 8.90 km
# MJD 59464.000000 (2021 Sep  7  0:00)
1969-046F = NORAD 03956 = Vela booster
1 03956U 69046F   21250.49918769  .00000000  00000-0  00000-0 0 10881
2 03956 018.1733 340.7644 8094746 281.1821 021.4639 00.46219201    07

# Worst residual: 2.73 km
# MJD 59465.000000 (2021 Sep  8  0:00)
1969-046F = NORAD 03956 = Vela booster
1 03956U 69046F   21251.49918769  .00000000  00000-0  00000-0 0 10882
2 03956 018.1684 340.7619 8099084 281.2046 187.6869 00.46202247    06

# Worst residual: 7.69 km
# MJD 59466.000000 (2021 Sep  9  0:00)
1969-046F = NORAD 03956 = Vela booster
1 03956U 69046F   21252.49918769  .00000000  00000-0  00000-0 0 10883
2 03956 018.1680 340.7669 8098040 281.2277 353.9575 00.46219731    02
